[{"OBJECT_NAME":"STARLINK-30116","OBJECT_ID":"2023-107J","EPOCH":"2026-03-09T03:38:04.630272","MEAN_MOTION":15.26729842,"ECCENTRICITY":0.00019616,"INCLINATION":43.0029,"RA_OF_ASC_NODE":339.2408,"ARG_OF_PERICENTER":277.6766,"MEAN_ANOMALY":82.3863,"EPHEMERIS_TYPE":0,"CLASSIFICATION_TYPE":"U","NORAD_CAT_ID":57465,"ELEMENT_SET_NO":999,"REV_AT_EPOCH":14506,"BSTAR":-5.3767112e-5,"MEAN_MOTION_DOT":-1.702e-5,"MEAN_MOTION_DDOT":0},{"OBJECT_NAME":"TIANMU-1 19","OBJECT_ID":"2023-208A","EPOCH":"2026-03-09T22:13:36.801696","MEAN_MOTION":15.2984143,"ECCENTRICITY":0.00039292,"INCLINATION":97.4383,"RA_OF_ASC_NODE":184.9132,"ARG_OF_PERICENTER":316.2611,"MEAN_ANOMALY":43.8317,"EPHEMERIS_TYPE":0,"CLASSIFICATION_TYPE":"U","NORAD_CAT_ID":58660,"ELEMENT_SET_NO":999,"REV_AT_EPOCH":12214,"BSTAR":0.00040995676,"MEAN_MOTION_DOT":0.00011779,"MEAN_MOTION_DDOT":0}]
